{"type":"FeatureCollection","crs":{"type":"name","properties":{"name":"urn:ogc:def:crs:OGC:1.3:CRS84"}},"features":[{"type":"Feature","properties":{"name":"Chattogram","iso":"BD-B","source":"geoBoundaries gbOpen BGD ADM1 (CC BY 4.0)"},"geometry":{"type":"MultiPolygon","coordinates":[[[[92.3141,20.6664],[92.3,20.6752],[92.2899,20.6683],[92.2864,20.656],[92.2958,20.6418],[92.302,20.6353],[92.3024,20.6262],[92.3051,20.6215],[92.3101,20.6222],[92.3113,20.632],[92.3101,20.6556],[92.3113,20.6618],[92.3141,20.6664]]],[[[91.8903,21.7907],[91.9012,21.8205],[91.9006,21.8791],[91.8921,21.8988],[91.8903,21.9208],[91.8739,21.9303],[91.8309,21.9157],[91.8369,21.8921],[91.8527,21.8735],[91.8497,21.8538],[91.8485,21.8256],[91.8388,21.7783],[91.846,21.7586],[91.857,21.7541],[91.8903,21.7907]]],[[[91.2363,22.6504],[91.2333,22.6231],[91.2452,22.5807],[91.3118,22.5465],[91.3163,22.5944],[91.3088,22.6203],[91.2526,22.6491],[91.2363,22.6491],[91.2363,22.6504]]],[[[91.4673,22.6012],[91.4288,22.6463],[91.3355,22.6709],[91.3962,22.5985],[91.4022,22.5314],[91.3874,22.4603],[91.4777,22.4041],[91.5029,22.3644],[91.5133,22.3452],[91.5695,22.3905],[91.5429,22.5068],[91.497,22.5533],[91.4822,22.5834],[91.4644,22.5971],[91.4629,22.5957],[91.4673,22.6012]]],[[[91.0537,22.7234],[91.0451,22.6936],[91.0745,22.649],[91.0726,22.5956],[91.1001,22.5702],[91.1551,22.5685],[91.1892,22.6114],[91.1655,22.663],[91.1143,22.6989],[91.1067,22.7111],[91.103,22.7102],[91.0537,22.7234]]],[[[91.3106,22.691],[91.3049,22.712],[91.2461,22.7417],[91.2508,22.7513],[91.2499,22.7522],[91.1968,22.7653],[91.1911,22.7435],[91.2433,22.7076],[91.2859,22.6857],[91.3106,22.691]]],[[[91.3182,22.7662],[91.3456,22.733],[91.375,22.719],[91.3807,22.7347],[91.3504,22.7653],[91.3504,22.7636],[91.3182,22.7662]]],[[[91.3074,24.2066],[91.3103,24.2309],[91.2896,24.2376],[91.2585,24.2444],[91.2149,24.2436],[91.1815,24.243],[91.1355,24.2336],[91.1163,24.2133],[91.0941,24.2012],[91.06,24.2066],[91.0393,24.185],[91.0422,24.1606],[91.0556,24.1417],[91.0659,24.1133],[91.0615,24.0795],[91.0363,24.0592],[91.0007,24.0335],[90.9933,24.0011],[90.9919,23.9645],[90.9682,23.951],[90.94,23.9158],[90.9296,23.8941],[90.9178,23.8738],[90.863,23.8589],[90.8008,23.8616],[90.7712,23.8508],[90.7593,23.7911],[90.7371,23.7681],[90.7356,23.7274],[90.7341,23.7084],[90.7104,23.6894],[90.6867,23.6786],[90.6764,23.6705],[90.666,23.646],[90.666,23.6257],[90.7001,23.57],[90.7089,23.5252],[90.6867,23.5035],[90.626,23.494],[90.6112,23.4614],[90.5949,23.4165],[90.6008,23.3798],[90.6364,23.3472],[90.6536,23.3097],[90.6602,23.2557],[90.6432,23.2209],[90.6233,23.1991],[90.5771,23.1389],[90.586,23.0613],[90.5898,23.0569],[90.6482,22.9904],[90.6764,22.9631],[90.7134,22.9454],[90.786,22.869],[90.82,22.7543],[90.9385,22.5656],[90.9667,22.5397],[91.0141,22.5041],[91.0407,22.4493],[91.0585,22.374],[91.06,22.3288],[91.0422,22.2329],[91.0304,22.2013],[91.0207,22.12],[91.0369,22.0943],[91.1225,22.1115],[91.1503,22.1758],[91.141,22.2401],[91.1387,22.3172],[91.141,22.3857],[91.1341,22.4285],[91.1086,22.4734],[91.0762,22.5097],[91.02,22.5479],[91.0393,22.5944],[91.0467,22.6327],[91.0274,22.6983],[90.983,22.828],[90.9859,22.854],[91.0674,22.7966],[91.137,22.8048],[91.1726,22.8376],[91.3237,22.7789],[91.3533,22.8171],[91.377,22.8253],[91.414,22.7734],[91.4807,22.7707],[91.5266,22.6969],[91.5651,22.66],[91.5977,22.6313],[91.6155,22.6108],[91.6421,22.5725],[91.6673,22.5465],[91.7029,22.4918],[91.7266,22.4397],[91.7517,22.3768],[91.7591,22.3055],[91.8569,22.1519],[91.9147,22.0504],[91.9354,21.9158],[91.925,21.792],[91.8969,21.7081],[91.9071,21.6389],[91.9025,21.5916],[91.9094,21.5033],[91.9881,21.5033],[92.0089,21.499],[91.9997,21.4193],[92.002,21.3806],[92.0251,21.3374],[92.0506,21.262],[92.0575,21.2037],[92.0691,21.1606],[92.164,21.0375],[92.2033,20.9727],[92.2357,20.8797],[92.2867,20.8062],[92.3584,20.7283],[92.3515,20.782],[92.3287,20.8307],[92.3117,20.8848],[92.305,20.9087],[92.305,20.9299],[92.2993,20.9547],[92.2725,21.0044],[92.2729,21.0225],[92.2864,21.0377],[92.2861,21.0573],[92.2798,21.0765],[92.2468,21.1109],[92.2084,21.1627],[92.2088,21.1758],[92.2127,21.1888],[92.2321,21.2062],[92.2301,21.2583],[92.2235,21.3278],[92.2406,21.3437],[92.2538,21.3499],[92.2662,21.3667],[92.2699,21.3914],[92.2861,21.4179],[92.3154,21.4126],[92.3306,21.4161],[92.3382,21.4338],[92.3401,21.4514],[92.3515,21.4673],[92.3619,21.4726],[92.3752,21.4726],[92.3894,21.4629],[92.3989,21.4497],[92.4264,21.3958],[92.4491,21.3623],[92.4576,21.3543],[92.4747,21.3526],[92.5013,21.3526],[92.5145,21.3552],[92.5373,21.364],[92.5477,21.3711],[92.5667,21.3623],[92.5705,21.3402],[92.5695,21.3243],[92.5733,21.3022],[92.5885,21.2625],[92.5961,21.251],[92.6055,21.2457],[92.6302,21.243],[92.6406,21.2483],[92.6539,21.2616],[92.6833,21.2837],[92.6909,21.3031],[92.6804,21.3208],[92.6738,21.3473],[92.6681,21.3623],[92.6662,21.3808],[92.6615,21.3958],[92.6482,21.4638],[92.6416,21.4841],[92.6245,21.5167],[92.6235,21.5555],[92.6087,21.7676],[92.6148,21.8076],[92.6287,21.8504],[92.6475,21.8943],[92.6414,21.9382],[92.6135,22.0265],[92.605,22.0592],[92.5741,22.1435],[92.6063,22.1255],[92.605,22.1789],[92.6123,22.2182],[92.6032,22.2564],[92.5838,22.3114],[92.5729,22.3816],[92.5487,22.5133],[92.5382,22.5562],[92.5344,22.5948],[92.542,22.6254],[92.5306,22.7321],[92.4956,22.7662],[92.4671,22.7837],[92.4697,22.8604],[92.4576,22.8962],[92.4133,22.9236],[92.3909,22.9526],[92.386,22.9766],[92.3894,23.0229],[92.4008,23.0474],[92.3979,23.077],[92.3666,23.145],[92.3619,23.2217],[92.3619,23.2487],[92.3685,23.267],[92.3818,23.2871],[92.4008,23.3106],[92.3733,23.3384],[92.3874,23.3821],[92.3552,23.4334],[92.328,23.4705],[92.3241,23.4812],[92.3218,23.5264],[92.3126,23.5785],[92.2889,23.6353],[92.2841,23.6547],[92.2847,23.678],[92.2895,23.6942],[92.292,23.7125],[92.2829,23.7314],[92.2659,23.7453],[92.2477,23.7297],[92.2392,23.713],[92.2386,23.6953],[92.2289,23.6597],[92.2228,23.6586],[92.2143,23.6842],[92.2192,23.7019],[92.2192,23.7236],[92.2082,23.7408],[92.1913,23.7519],[92.1725,23.7547],[92.15,23.7475],[92.1276,23.7364],[92.1057,23.7192],[92.093,23.7019],[92.0887,23.6903],[92.076,23.6742],[92.0737,23.6601],[92.0424,23.6618],[92.0187,23.6775],[91.996,23.7295],[91.9855,23.7434],[91.9571,23.7452],[91.9258,23.72],[91.9315,23.6861],[91.9438,23.6453],[91.9505,23.5949],[91.9675,23.5437],[91.9571,23.4837],[91.9543,23.4446],[91.9211,23.4524],[91.8841,23.4498],[91.8737,23.4289],[91.8367,23.3845],[91.8054,23.3332],[91.7959,23.3106],[91.7836,23.2923],[91.7779,23.2731],[91.7846,23.2357],[91.7969,23.2069],[91.8154,23.1895],[91.8216,23.1656],[91.824,23.1463],[91.8224,23.1295],[91.8131,23.1067],[91.7991,23.0885],[91.7836,23.0753],[91.756,23.0431],[91.7479,23.0274],[91.7362,23.0138],[91.7229,23.0018],[91.7018,22.9899],[91.6657,22.9874],[91.6521,22.9796],[91.6386,22.9746],[91.6265,22.9805],[91.6178,22.9869],[91.5964,22.9755],[91.586,22.9723],[91.565,22.9813],[91.5413,23.012],[91.5347,23.0603],[91.5304,23.0774],[91.5258,23.1224],[91.516,23.1619],[91.522,23.1893],[91.4844,23.2328],[91.4444,23.2668],[91.4256,23.2735],[91.4092,23.2701],[91.4013,23.2512],[91.4001,23.2283],[91.3928,23.2027],[91.3916,23.1614],[91.3946,23.1402],[91.411,23.095],[91.4086,23.0816],[91.3995,23.0822],[91.3825,23.0877],[91.3704,23.0956],[91.3546,23.1151],[91.334,23.1603],[91.3291,23.1848],[91.3279,23.2512],[91.3158,23.3013],[91.3042,23.3231],[91.3012,23.3431],[91.2933,23.3654],[91.2392,23.4899],[91.1903,23.5483],[91.1637,23.6094],[91.1578,23.642],[91.1948,23.6705],[91.1918,23.7139],[91.1726,23.7464],[91.177,23.7749],[91.214,23.7749],[91.2318,23.783],[91.2303,23.8101],[91.2414,23.8952],[91.2357,23.9489],[91.2698,23.9775],[91.2954,24.0035],[91.3103,24.043],[91.3074,24.0633],[91.2911,24.0849],[91.2851,24.1174],[91.2851,24.1525],[91.2911,24.1795],[91.3074,24.2066]]]]}},{"type":"Feature","properties":{"name":"Dhaka","iso":"BD-C","source":"geoBoundaries gbOpen BGD ADM1 (CC BY 4.0)"},"geometry":{"type":"Polygon","coordinates":[[[91.2149,24.2436],[91.2006,24.2823],[91.1751,24.3055],[91.1988,24.3264],[91.2296,24.3336],[91.241,24.3432],[91.2296,24.3664],[91.2279,24.3817],[91.2507,24.3921],[91.2569,24.4001],[91.2384,24.4153],[91.2235,24.4321],[91.2428,24.4641],[91.2217,24.4857],[91.1997,24.4697],[91.1619,24.4825],[91.1777,24.5049],[91.2363,24.5331],[91.239,24.5643],[91.2115,24.5943],[91.2033,24.6293],[91.1939,24.64],[91.1923,24.6418],[91.1538,24.6231],[91.092,24.6156],[91.07,24.6168],[91.0247,24.6006],[91.0041,24.6006],[90.9711,24.5981],[90.8996,24.5906],[90.8776,24.5806],[90.8337,24.5356],[90.7979,24.5256],[90.7705,24.5231],[90.7526,24.5118],[90.7073,24.4993],[90.6757,24.4956],[90.6276,24.5081],[90.6152,24.5081],[90.607,24.4768],[90.6386,24.4543],[90.6702,24.4431],[90.6729,24.4293],[90.6647,24.3993],[90.6523,24.3818],[90.6509,24.363],[90.6647,24.3442],[90.6688,24.3254],[90.6647,24.3104],[90.6454,24.2891],[90.618,24.2816],[90.5863,24.2816],[90.5712,24.2991],[90.5493,24.3192],[90.5094,24.3329],[90.4805,24.3455],[90.4173,24.3154],[90.3651,24.2991],[90.3143,24.2841],[90.2717,24.3092],[90.2593,24.338],[90.258,24.3855],[90.2593,24.413],[90.236,24.4443],[90.2332,24.4656],[90.2483,24.4768],[90.2483,24.5006],[90.2057,24.5243],[90.1741,24.5643],[90.1439,24.5943],[90.1398,24.6131],[90.1535,24.6368],[90.1522,24.6518],[90.137,24.7055],[90.1343,24.7354],[90.1137,24.7679],[90.0876,24.7916],[90.0477,24.7903],[90.0203,24.7529],[89.99,24.7267],[89.9653,24.7379],[89.9351,24.7654],[89.8952,24.7504],[89.8829,24.7254],[89.8829,24.6892],[89.8746,24.6493],[89.843,24.6243],[89.832,24.5981],[89.7995,24.5792],[89.7977,24.5781],[89.7729,24.5618],[89.7482,24.5443],[89.74,24.5256],[89.7482,24.5018],[89.7537,24.4918],[89.7509,24.4606],[89.7372,24.4356],[89.7606,24.408],[89.7647,24.393],[89.7606,24.3592],[89.7825,24.3217],[89.7977,24.2803],[89.7977,24.2503],[89.7935,24.2102],[89.7949,24.1889],[89.799,24.145],[89.8087,24.0735],[89.8018,24.0622],[89.7998,24.0304],[89.776,24.0087],[89.74,23.9966],[89.718,23.9741],[89.7593,23.9267],[89.7707,23.8905],[89.7866,23.86],[89.7945,23.7956],[89.7936,23.765],[89.732,23.7602],[89.6828,23.7699],[89.6406,23.7715],[89.6116,23.7932],[89.5764,23.8214],[89.5474,23.7956],[89.5052,23.79],[89.4638,23.8061],[89.4568,23.831],[89.4374,23.8592],[89.4075,23.8793],[89.3372,23.8946],[89.3375,23.9039],[89.3082,23.9075],[89.2553,23.9123],[89.2554,23.9117],[89.2589,23.8905],[89.3135,23.864],[89.3266,23.8294],[89.3249,23.7868],[89.3064,23.753],[89.3055,23.7256],[89.3302,23.6894],[89.3812,23.6628],[89.4243,23.6757],[89.5078,23.5441],[89.5082,23.5309],[89.4995,23.5253],[89.4974,23.5161],[89.5028,23.4999],[89.5229,23.4933],[89.5399,23.4933],[89.559,23.488],[89.5723,23.4821],[89.5869,23.4702],[89.5922,23.446],[89.594,23.4201],[89.5887,23.404],[89.5817,23.3919],[89.5879,23.3791],[89.5823,23.3605],[89.5969,23.344],[89.6037,23.3259],[89.6065,23.3135],[89.6127,23.2964],[89.6262,23.284],[89.6538,23.2763],[89.6459,23.2644],[89.6301,23.2494],[89.6313,23.2349],[89.647,23.2302],[89.6746,23.2246],[89.6926,23.2075],[89.6898,23.1718],[89.7348,23.1656],[89.7399,23.1702],[89.752,23.1412],[89.7308,23.1272],[89.7188,23.1255],[89.699,23.127],[89.6817,23.1195],[89.6784,23.1085],[89.6948,23.0894],[89.7204,23.071],[89.7375,23.0547],[89.7524,23.0144],[89.7787,22.9972],[89.7873,22.9839],[89.8017,22.9637],[89.8132,22.9451],[89.8132,22.9272],[89.8104,22.9119],[89.8096,22.8934],[89.8172,22.8748],[89.8338,22.8535],[89.8561,22.8439],[89.8716,22.8403],[89.9051,22.8486],[89.9456,22.8344],[89.9491,22.845],[89.9907,22.8791],[90.0254,22.8962],[90.0416,22.9111],[90.0625,22.958],[90.1064,23.0006],[90.1203,23.024],[90.1736,23.0453],[90.2106,23.0368],[90.2291,22.99],[90.2823,22.9772],[90.3402,22.9772],[90.3772,22.9985],[90.4073,23.024],[90.4146,23.0268],[90.4467,23.039],[90.4976,23.0922],[90.53,23.0837],[90.5601,23.0432],[90.5898,23.0569],[90.586,23.0613],[90.5771,23.1389],[90.6233,23.1991],[90.6432,23.2209],[90.6602,23.2557],[90.6536,23.3097],[90.6364,23.3472],[90.6008,23.3798],[90.5949,23.4165],[90.6112,23.4614],[90.626,23.494],[90.6867,23.5035],[90.7089,23.5252],[90.7001,23.57],[90.666,23.6257],[90.666,23.646],[90.6764,23.6705],[90.6867,23.6786],[90.7104,23.6894],[90.7341,23.7084],[90.7356,23.7274],[90.7371,23.7681],[90.7593,23.7911],[90.7712,23.8508],[90.8008,23.8616],[90.863,23.8589],[90.9178,23.8738],[90.9296,23.8941],[90.94,23.9158],[90.9682,23.951],[90.9919,23.9645],[90.9933,24.0011],[91.0007,24.0335],[91.0363,24.0592],[91.0615,24.0795],[91.0659,24.1133],[91.0556,24.1417],[91.0422,24.1606],[91.0393,24.185],[91.06,24.2066],[91.0941,24.2012],[91.1163,24.2133],[91.1355,24.2336],[91.1815,24.243],[91.2149,24.2436]]]}},{"type":"Feature","properties":{"name":"Mymensingh","iso":"BD-H","source":"geoBoundaries gbOpen BGD ADM1 (CC BY 4.0)"},"geometry":{"type":"Polygon","coordinates":[[[91.1939,24.64],[91.1978,24.6418],[91.2363,24.658],[91.2596,24.693],[91.2184,24.7292],[91.1827,24.7429],[91.1758,24.7579],[91.1909,24.7828],[91.217,24.8165],[91.1593,24.8165],[91.1524,24.839],[91.1373,24.8701],[91.0975,24.8814],[91.059,24.8926],[91.0357,24.9025],[91.0027,24.9113],[90.9779,24.9698],[90.967,25.0109],[90.9711,25.0607],[90.9821,25.0943],[90.9862,25.1155],[90.9773,25.1715],[90.9472,25.1599],[90.8656,25.1754],[90.7797,25.1851],[90.7261,25.1774],[90.6896,25.1696],[90.6638,25.1754],[90.6295,25.1774],[90.5844,25.1754],[90.5522,25.1774],[90.5028,25.1754],[90.4706,25.1676],[90.3847,25.1676],[90.3246,25.1793],[90.2902,25.1929],[90.243,25.2084],[90.1292,25.2376],[90.0756,25.257],[90.0369,25.2764],[89.9811,25.3016],[89.9317,25.3191],[89.8995,25.3133],[89.8566,25.3016],[89.8308,25.3113],[89.8287,25.354],[89.79,25.3909],[89.7664,25.3676],[89.7793,25.2978],[89.7728,25.2317],[89.7428,25.2123],[89.7213,25.1929],[89.7084,25.1599],[89.6848,25.1346],[89.6762,25.0938],[89.6728,25.0633],[89.6698,25.0374],[89.6612,24.9829],[89.687,24.9187],[89.6977,24.886],[89.6889,24.8382],[89.7329,24.8278],[89.754,24.8134],[89.7751,24.7887],[89.7989,24.7655],[89.8094,24.736],[89.8182,24.6944],[89.7971,24.6521],[89.7995,24.5792],[89.832,24.5981],[89.843,24.6243],[89.8746,24.6493],[89.8829,24.6892],[89.8829,24.7254],[89.8952,24.7504],[89.9351,24.7654],[89.9653,24.7379],[89.99,24.7267],[90.0203,24.7529],[90.0477,24.7903],[90.0876,24.7916],[90.1137,24.7679],[90.1343,24.7354],[90.137,24.7055],[90.1522,24.6518],[90.1535,24.6368],[90.1398,24.6131],[90.1439,24.5943],[90.1741,24.5643],[90.2057,24.5243],[90.2483,24.5006],[90.2483,24.4768],[90.2332,24.4656],[90.236,24.4443],[90.2593,24.413],[90.258,24.3855],[90.2593,24.338],[90.2717,24.3092],[90.3143,24.2841],[90.3651,24.2991],[90.4173,24.3154],[90.4805,24.3455],[90.5094,24.3329],[90.5493,24.3192],[90.5712,24.2991],[90.5863,24.2816],[90.618,24.2816],[90.6454,24.2891],[90.6647,24.3104],[90.6688,24.3254],[90.6647,24.3442],[90.6509,24.363],[90.6523,24.3818],[90.6647,24.3993],[90.6729,24.4293],[90.6702,24.4431],[90.6386,24.4543],[90.607,24.4768],[90.6152,24.5081],[90.6276,24.5081],[90.6757,24.4956],[90.7073,24.4993],[90.7526,24.5118],[90.7705,24.5231],[90.7979,24.5256],[90.8337,24.5356],[90.8776,24.5806],[90.8996,24.5906],[90.9711,24.5981],[91.0041,24.6006],[91.0247,24.6006],[91.07,24.6168],[91.092,24.6156],[91.1538,24.6231],[91.1923,24.6418],[91.1939,24.64]]]}},{"type":"Feature","properties":{"name":"Rajshahi","iso":"BD-E","source":"geoBoundaries gbOpen BGD ADM1 (CC BY 4.0)"},"geometry":{"type":"Polygon","coordinates":[[[89.7995,24.5792],[89.7971,24.6521],[89.8182,24.6944],[89.8094,24.736],[89.7989,24.7655],[89.7751,24.7887],[89.754,24.8134],[89.7329,24.8278],[89.6889,24.8382],[89.6977,24.886],[89.687,24.9187],[89.6612,24.9829],[89.6698,25.0374],[89.6728,25.0633],[89.6723,25.063],[89.6363,25.0426],[89.6059,25.0411],[89.5823,25.0365],[89.5513,25.0288],[89.5103,25.035],[89.4664,25.0467],[89.3774,25.0599],[89.3521,25.0696],[89.3302,25.0854],[89.2913,25.0967],[89.2469,25.1074],[89.2266,25.1237],[89.212,25.1405],[89.1844,25.168],[89.1754,25.1761],[89.1748,25.2047],[89.1821,25.2174],[89.1433,25.2286],[89.1107,25.2291],[89.0696,25.2459],[89.0347,25.2479],[88.9897,25.2713],[88.9672,25.2698],[88.9424,25.2551],[88.9407,25.2296],[88.9326,25.1833],[88.9218,25.1755],[88.9066,25.1739],[88.884,25.1804],[88.8425,25.2013],[88.8263,25.2006],[88.8134,25.1954],[88.7979,25.1788],[88.7809,25.1784],[88.7698,25.1872],[88.6965,25.2092],[88.6751,25.2052],[88.639,25.2021],[88.5968,25.2006],[88.5788,25.1756],[88.5361,25.1797],[88.5287,25.1878],[88.5029,25.2072],[88.4933,25.2082],[88.4702,25.2057],[88.4477,25.1929],[88.4471,25.171],[88.4584,25.1598],[88.4539,25.143],[88.4291,25.1277],[88.4314,25.1135],[88.4364,25.0992],[88.4376,25.0793],[88.4319,25.0747],[88.419,25.0722],[88.4184,25.0549],[88.4331,25.038],[88.4359,25.0227],[88.4212,25.0125],[88.4083,25.0084],[88.4032,24.9829],[88.3869,24.9579],[88.361,24.9472],[88.3329,24.938],[88.3256,24.9227],[88.3273,24.9079],[88.3346,24.8911],[88.3329,24.8753],[88.3154,24.8712],[88.2974,24.8691],[88.2845,24.8742],[88.262,24.886],[88.2547,24.8957],[88.2389,24.9258],[88.2248,24.9467],[88.2001,24.96],[88.1753,24.963],[88.123,24.9299],[88.119,24.9186],[88.1443,24.9023],[88.1607,24.8661],[88.1567,24.8456],[88.1427,24.8329],[88.1016,24.8135],[88.0886,24.7833],[88.0678,24.7751],[88.0577,24.7613],[88.0498,24.72],[88.0313,24.7024],[88.0208,24.6849],[88.034,24.6721],[88.0586,24.6345],[88.0762,24.6121],[88.0973,24.5897],[88.0946,24.5513],[88.0973,24.5393],[88.1351,24.5057],[88.1527,24.4993],[88.158,24.4929],[88.1879,24.4689],[88.2125,24.4649],[88.2451,24.4661],[88.2687,24.4615],[88.2935,24.4543],[88.3672,24.4057],[88.4701,24.352],[88.486,24.3432],[88.5141,24.3224],[88.5317,24.3152],[88.5625,24.3232],[88.5871,24.324],[88.6047,24.3144],[88.6117,24.3072],[88.6275,24.3031],[88.6451,24.3128],[88.668,24.336],[88.6891,24.324],[88.7067,24.3104],[88.7234,24.2839],[88.7304,24.2663],[88.7313,24.2478],[88.726,24.2238],[88.7111,24.1885],[88.7533,24.1829],[88.7788,24.1508],[88.8069,24.1323],[88.8694,24.1219],[88.9098,24.1307],[88.974,24.1299],[88.9951,24.1131],[89.0215,24.0745],[89.0409,24.0368],[89.091,23.9637],[89.1508,23.938],[89.1851,23.9323],[89.1974,23.9323],[89.2027,23.9508],[89.2079,23.9661],[89.2537,23.9564],[89.2537,23.9219],[89.2553,23.9123],[89.3082,23.9075],[89.3375,23.9039],[89.3372,23.8946],[89.4075,23.8793],[89.4374,23.8592],[89.4568,23.831],[89.4638,23.8061],[89.5052,23.79],[89.5474,23.7956],[89.5764,23.8214],[89.6116,23.7932],[89.6406,23.7715],[89.6828,23.7699],[89.732,23.7602],[89.7936,23.765],[89.7945,23.7956],[89.7866,23.86],[89.7707,23.8905],[89.7593,23.9267],[89.718,23.9741],[89.74,23.9966],[89.776,24.0087],[89.7998,24.0304],[89.8018,24.0622],[89.8087,24.0735],[89.799,24.145],[89.7949,24.1889],[89.7935,24.2102],[89.7977,24.2503],[89.7977,24.2803],[89.7825,24.3217],[89.7606,24.3592],[89.7647,24.393],[89.7606,24.408],[89.7372,24.4356],[89.7509,24.4606],[89.7537,24.4918],[89.7482,24.5018],[89.74,24.5256],[89.7482,24.5443],[89.7729,24.5618],[89.7977,24.5781],[89.7995,24.5792]]]}},{"type":"Feature","properties":{"name":"Rangpur","iso":"BD-F","source":"geoBoundaries gbOpen BGD ADM1 (CC BY 4.0)"},"geometry":{"type":"Polygon","coordinates":[[[89.79,25.3909],[89.827,25.3556],[89.8207,25.3755],[89.8191,25.4013],[89.8274,25.424],[89.8347,25.4352],[89.8449,25.5016],[89.8423,25.5162],[89.846,25.5424],[89.8564,25.5615],[89.8629,25.5852],[89.8601,25.5963],[89.8523,25.6104],[89.8534,25.6243],[89.8571,25.636],[89.867,25.6545],[89.8672,25.6621],[89.8545,25.675],[89.8373,25.7105],[89.823,25.7292],[89.8197,25.7407],[89.8262,25.7483],[89.8357,25.7554],[89.8467,25.7668],[89.8423,25.7888],[89.829,25.8034],[89.8158,25.8251],[89.8195,25.8372],[89.8338,25.8525],[89.8389,25.8737],[89.8486,25.8838],[89.8629,25.8948],[89.873,25.9062],[89.8827,25.9206],[89.8693,25.9299],[89.832,25.9419],[89.8216,25.9523],[89.8476,25.9628],[89.8564,25.9763],[89.8513,25.9869],[89.8315,25.9858],[89.8239,25.9879],[89.8154,25.9977],[89.8108,26.0105],[89.8094,26.0219],[89.7932,26.0325],[89.784,26.0414],[89.7812,26.0554],[89.7863,26.0575],[89.7939,26.0679],[89.7939,26.0807],[89.7773,26.1056],[89.7587,26.1223],[89.7437,26.1449],[89.7407,26.1536],[89.7354,26.1581],[89.7204,26.1573],[89.6955,26.1457],[89.6817,26.1443],[89.6754,26.1486],[89.6727,26.1612],[89.6718,26.1819],[89.6798,26.2065],[89.6791,26.2154],[89.6708,26.221],[89.6552,26.2258],[89.6436,26.2266],[89.622,26.2031],[89.6184,26.1921],[89.6094,26.1779],[89.5921,26.1579],[89.5852,26.1398],[89.5907,26.121],[89.5928,26.1052],[89.5899,26.0921],[89.6008,26.0702],[89.6028,26.0799],[89.6142,26.1044],[89.6327,26.1068],[89.6363,26.0863],[89.6413,26.0697],[89.642,26.0559],[89.636,26.0469],[89.6087,26.043],[89.5964,26.0395],[89.5824,26.035],[89.5627,26.025],[89.5629,25.9985],[89.565,25.9898],[89.5775,25.9805],[89.5818,25.9732],[89.5809,25.9628],[89.5765,25.9498],[89.5682,25.9469],[89.5452,25.9508],[89.5406,25.9597],[89.5357,25.9807],[89.5297,25.9873],[89.5189,25.9916],[89.4889,25.9904],[89.4657,25.9933],[89.4594,25.9962],[89.4392,26.0279],[89.4237,26.0424],[89.4193,26.0401],[89.4143,26.0335],[89.4087,26.0198],[89.4046,26.0035],[89.3901,25.9943],[89.3797,25.9958],[89.3522,26.0036],[89.3346,26.0142],[89.3126,26.0333],[89.274,26.0447],[89.2499,26.0583],[89.2596,26.0699],[89.2297,26.1019],[89.2099,26.1142],[89.1703,26.1249],[89.1588,26.1323],[89.1326,26.1683],[89.1394,26.1875],[89.1399,26.2057],[89.1337,26.2324],[89.1236,26.243],[89.1005,26.2607],[89.1,26.2778],[89.118,26.2859],[89.1461,26.3046],[89.1377,26.3101],[89.096,26.3192],[89.0842,26.3258],[89.0808,26.3429],[89.0842,26.3621],[89.1045,26.3757],[89.0831,26.3893],[89.0611,26.3888],[89.0381,26.3913],[89.0189,26.3954],[88.9992,26.414],[88.9508,26.4382],[88.9362,26.4352],[88.9193,26.4211],[88.9058,26.4135],[88.8884,26.3994],[88.8839,26.3737],[88.9019,26.351],[88.9126,26.3404],[88.9401,26.3333],[88.9604,26.3414],[88.9762,26.3318],[88.9762,26.3207],[88.9705,26.299],[88.9711,26.2864],[88.9779,26.2819],[88.9857,26.2889],[89.0099,26.2829],[89.0324,26.2612],[89.0437,26.246],[89.046,26.2314],[89.0347,26.2253],[89.0172,26.2243],[88.9576,26.2269],[88.9413,26.2314],[88.93,26.2435],[88.912,26.2683],[88.8996,26.2753],[88.885,26.2758],[88.8704,26.2667],[88.8585,26.2496],[88.858,26.2243],[88.8552,26.2087],[88.8467,26.2092],[88.8304,26.2213],[88.8135,26.2375],[88.8068,26.2501],[88.8062,26.2723],[88.8118,26.2894],[88.7477,26.3061],[88.7527,26.3253],[88.7471,26.3404],[88.7218,26.3394],[88.7004,26.3349],[88.6846,26.3485],[88.6987,26.3535],[88.6942,26.3797],[88.6903,26.3873],[88.6689,26.3888],[88.6492,26.3989],[88.6272,26.4155],[88.6171,26.4306],[88.6132,26.4437],[88.6008,26.4674],[88.5918,26.4664],[88.5828,26.4508],[88.589,26.4402],[88.585,26.4327],[88.5704,26.4357],[88.5574,26.4422],[88.5462,26.4453],[88.5372,26.4679],[88.5203,26.4684],[88.5158,26.4891],[88.5057,26.4956],[88.491,26.4881],[88.4837,26.4992],[88.4792,26.5178],[88.4494,26.5208],[88.4263,26.5279],[88.4201,26.548],[88.419,26.6004],[88.4134,26.621],[88.3723,26.5827],[88.3638,26.5631],[88.352,26.5243],[88.3408,26.5075],[88.3246,26.4956],[88.3134,26.4643],[88.3159,26.4433],[88.3311,26.4278],[88.3491,26.4285],[88.3552,26.4398],[88.3588,26.4546],[88.3671,26.4623],[88.3844,26.4617],[88.4053,26.4536],[88.4099,26.4475],[88.4107,26.4401],[88.4287,26.4366],[88.451,26.4443],[88.4651,26.432],[88.4748,26.4153],[88.4787,26.3946],[88.5032,26.3572],[88.4928,26.3459],[88.4798,26.3423],[88.4694,26.3559],[88.4416,26.3523],[88.4287,26.3398],[88.3955,26.2958],[88.3671,26.2923],[88.3487,26.2878],[88.3372,26.2719],[88.3332,26.249],[88.3379,26.229],[88.3455,26.2119],[88.3278,26.1941],[88.2986,26.1789],[88.2583,26.1705],[88.2255,26.1773],[88.2158,26.164],[88.2169,26.1401],[88.1852,26.1273],[88.172,26.1155],[88.1588,26.0957],[88.15,26.0768],[88.165,26.0578],[88.172,26.0404],[88.1694,26.0159],[88.1588,25.9938],[88.1193,25.9859],[88.1149,25.9622],[88.107,25.94],[88.0813,25.919],[88.0774,25.8982],[88.0791,25.8744],[88.0864,25.8638],[88.0886,25.8501],[88.0864,25.8365],[88.0881,25.8172],[88.1021,25.7985],[88.1337,25.7731],[88.1489,25.7686],[88.1669,25.7838],[88.1736,25.7959],[88.1978,25.7757],[88.2136,25.7777],[88.2203,25.7868],[88.2226,25.8],[88.2383,25.8071],[88.2541,25.7888],[88.2642,25.7731],[88.285,25.7665],[88.3087,25.7432],[88.3185,25.7287],[88.3383,25.7183],[88.3595,25.6895],[88.3844,25.6735],[88.4096,25.6625],[88.4265,25.6492],[88.4329,25.6233],[88.4274,25.6148],[88.438,25.5857],[88.4859,25.5663],[88.4963,25.5472],[88.5014,25.5343],[88.5101,25.5253],[88.5231,25.5154],[88.5468,25.502],[88.5619,25.5014],[88.581,25.5043],[88.6062,25.5023],[88.6225,25.4988],[88.6448,25.4822],[88.67,25.4767],[88.6812,25.477],[88.6985,25.4822],[88.7208,25.4929],[88.7355,25.4931],[88.7493,25.4981],[88.7562,25.5315],[88.7726,25.5266],[88.7823,25.5179],[88.7974,25.5266],[88.8042,25.503],[88.8097,25.4757],[88.8111,25.4621],[88.8111,25.4174],[88.8152,25.4013],[88.8345,25.3814],[88.8702,25.3293],[88.9142,25.3144],[88.9581,25.3057],[88.9672,25.2698],[88.9897,25.2713],[89.0347,25.2479],[89.0696,25.2459],[89.1107,25.2291],[89.1433,25.2286],[89.1821,25.2174],[89.1748,25.2047],[89.1754,25.1761],[89.1844,25.168],[89.212,25.1405],[89.2266,25.1237],[89.2469,25.1074],[89.2913,25.0967],[89.3302,25.0854],[89.3521,25.0696],[89.3774,25.0599],[89.4664,25.0467],[89.5103,25.035],[89.5513,25.0288],[89.5823,25.0365],[89.6059,25.0411],[89.6363,25.0426],[89.6723,25.063],[89.6728,25.0633],[89.6762,25.0938],[89.6848,25.1346],[89.7084,25.1599],[89.7213,25.1929],[89.7428,25.2123],[89.7728,25.2317],[89.7793,25.2978],[89.7664,25.3676],[89.79,25.3909]]]}},{"type":"Feature","properties":{"name":"Sylhet","iso":"BD-G","source":"geoBoundaries gbOpen BGD ADM1 (CC BY 4.0)"},"geometry":{"type":"Polygon","coordinates":[[[91.2954,24.0035],[91.3187,23.9995],[91.3393,23.9932],[91.3682,23.992],[91.3901,24.0108],[91.3943,24.0171],[91.4011,24.0472],[91.4025,24.0622],[91.3943,24.0873],[91.3819,24.1174],[91.4011,24.1337],[91.4245,24.1325],[91.4589,24.1174],[91.4753,24.1074],[91.5138,24.0911],[91.544,24.0823],[91.566,24.0798],[91.6279,24.0873],[91.6375,24.1187],[91.6416,24.1538],[91.6347,24.2089],[91.6512,24.2152],[91.6911,24.1901],[91.7515,24.1601],[91.768,24.1601],[91.7749,24.1713],[91.7653,24.2002],[91.7584,24.2315],[91.768,24.2428],[91.8037,24.2315],[91.8601,24.1926],[91.8862,24.1801],[91.904,24.1864],[91.9191,24.2039],[91.926,24.2202],[91.9288,24.2453],[91.9288,24.2641],[91.926,24.2904],[91.9191,24.3279],[91.9233,24.3417],[91.9549,24.3555],[91.992,24.3517],[92.0126,24.3667],[91.992,24.3968],[92.0112,24.403],[92.0469,24.398],[92.095,24.3955],[92.1074,24.403],[92.1321,24.4105],[92.1596,24.4218],[92.1527,24.4431],[92.1472,24.4768],[92.1362,24.5081],[92.1312,24.5312],[92.1442,24.5481],[92.1802,24.5772],[92.1954,24.5977],[92.1987,24.6136],[92.1982,24.6381],[92.2117,24.656],[92.2224,24.6831],[92.2348,24.721],[92.2517,24.7383],[92.2826,24.7746],[92.2826,24.8267],[92.2725,24.8492],[92.2916,24.8707],[92.3226,24.8778],[92.3597,24.8804],[92.4182,24.8809],[92.4565,24.8839],[92.4768,24.8916],[92.4892,24.9263],[92.4897,24.9544],[92.4807,24.9763],[92.434,24.9947],[92.4306,25.0258],[92.3969,25.0508],[92.3546,25.0701],[92.3406,25.0926],[92.3361,25.1068],[92.3136,25.1002],[92.286,25.1017],[92.2528,25.1109],[92.2258,25.1237],[92.2106,25.1405],[92.1503,25.1736],[92.117,25.1973],[92.0871,25.2127],[92.0025,25.1931],[91.9643,25.1882],[91.9427,25.1892],[91.8483,25.1762],[91.7857,25.183],[91.7543,25.1843],[91.7309,25.1804],[91.6938,25.1576],[91.6754,25.1507],[91.6545,25.1537],[91.6286,25.1618],[91.5912,25.1788],[91.5584,25.1719],[91.5216,25.1494],[91.4997,25.1497],[91.4399,25.168],[91.4165,25.181],[91.3898,25.1931],[91.3354,25.1794],[91.3174,25.1947],[91.2763,25.2162],[91.249,25.2156],[91.1964,25.2052],[91.1373,25.2055],[91.0818,25.2006],[91.0289,25.198],[91.0048,25.1915],[90.9773,25.1715],[90.9862,25.1155],[90.9821,25.0943],[90.9711,25.0607],[90.967,25.0109],[90.9779,24.9698],[91.0027,24.9113],[91.0357,24.9025],[91.059,24.8926],[91.0975,24.8814],[91.1373,24.8701],[91.1524,24.839],[91.1593,24.8165],[91.217,24.8165],[91.1909,24.7828],[91.1758,24.7579],[91.1827,24.7429],[91.2184,24.7292],[91.2596,24.693],[91.2363,24.658],[91.1978,24.6418],[91.1939,24.64],[91.2033,24.6293],[91.2115,24.5943],[91.239,24.5643],[91.2363,24.5331],[91.1777,24.5049],[91.1619,24.4825],[91.1997,24.4697],[91.2217,24.4857],[91.2428,24.4641],[91.2235,24.4321],[91.2384,24.4153],[91.2569,24.4001],[91.2507,24.3921],[91.2279,24.3817],[91.2296,24.3664],[91.241,24.3432],[91.2296,24.3336],[91.1988,24.3264],[91.1751,24.3055],[91.2006,24.2823],[91.2149,24.2436],[91.2585,24.2444],[91.2896,24.2376],[91.3103,24.2309],[91.3074,24.2066],[91.2911,24.1795],[91.2851,24.1525],[91.2851,24.1174],[91.2911,24.0849],[91.3074,24.0633],[91.3103,24.043],[91.2954,24.0035]]]}},{"type":"Feature","properties":{"name":"Khulna","iso":"BD-D","source":"geoBoundaries gbOpen BGD ADM1 (CC BY 4.0)"},"geometry":{"type":"MultiPolygon","coordinates":[[[[89.3572,21.6887],[89.3617,21.707],[89.3499,21.7243],[89.3476,21.7311],[89.3302,21.7509],[89.3167,21.7488],[89.3189,21.7122],[89.3296,21.6976],[89.347,21.6871],[89.3572,21.6887]]],[[[89.9051,22.8486],[89.8716,22.8403],[89.8561,22.8439],[89.8338,22.8535],[89.8172,22.8748],[89.8096,22.8934],[89.8104,22.9119],[89.8132,22.9272],[89.8132,22.9451],[89.8017,22.9637],[89.7873,22.9839],[89.7787,22.9972],[89.7524,23.0144],[89.7375,23.0547],[89.7204,23.071],[89.6948,23.0894],[89.6784,23.1085],[89.6817,23.1195],[89.699,23.127],[89.7188,23.1255],[89.7308,23.1272],[89.752,23.1412],[89.7399,23.1702],[89.7348,23.1656],[89.6898,23.1718],[89.6926,23.2075],[89.6746,23.2246],[89.647,23.2302],[89.6313,23.2349],[89.6301,23.2494],[89.6459,23.2644],[89.6538,23.2763],[89.6262,23.284],[89.6127,23.2964],[89.6065,23.3135],[89.6037,23.3259],[89.5969,23.344],[89.5823,23.3605],[89.5879,23.3791],[89.5817,23.3919],[89.5887,23.404],[89.594,23.4201],[89.5922,23.446],[89.5869,23.4702],[89.5723,23.4821],[89.559,23.488],[89.5399,23.4933],[89.5229,23.4933],[89.5028,23.4999],[89.4974,23.5161],[89.4995,23.5253],[89.5082,23.5309],[89.5078,23.5441],[89.4243,23.6757],[89.3812,23.6628],[89.3302,23.6894],[89.3055,23.7256],[89.3064,23.753],[89.3249,23.7868],[89.3266,23.8294],[89.3135,23.864],[89.2589,23.8905],[89.2554,23.9117],[89.2553,23.9123],[89.2537,23.9219],[89.2537,23.9564],[89.2079,23.9661],[89.2027,23.9508],[89.1974,23.9323],[89.1851,23.9323],[89.1508,23.938],[89.091,23.9637],[89.0409,24.0368],[89.0215,24.0745],[88.9951,24.1131],[88.974,24.1299],[88.9098,24.1307],[88.8694,24.1219],[88.8069,24.1323],[88.7788,24.1508],[88.7533,24.1829],[88.7111,24.1885],[88.6979,24.166],[88.6988,24.1355],[88.7058,24.0962],[88.7348,24.0721],[88.7436,24.0536],[88.7287,24.0175],[88.7342,23.976],[88.7463,23.9251],[88.7357,23.9122],[88.7102,23.9018],[88.6618,23.8745],[88.6407,23.8736],[88.624,23.8889],[88.6091,23.8865],[88.5924,23.8688],[88.61,23.8375],[88.6144,23.8061],[88.6013,23.7928],[88.5755,23.7866],[88.5794,23.7753],[88.5952,23.7536],[88.5816,23.7294],[88.5732,23.7088],[88.58,23.6954],[88.5861,23.6717],[88.5565,23.6674],[88.5766,23.6398],[88.6404,23.6029],[88.7007,23.5322],[88.7611,23.4953],[88.7779,23.4584],[88.741,23.4122],[88.7276,23.3229],[88.7287,23.2644],[88.7548,23.2454],[88.7905,23.2277],[88.8111,23.2277],[88.8111,23.2505],[88.8304,23.2517],[88.9279,23.2164],[88.9554,23.2113],[88.9719,23.2063],[88.9664,23.1886],[88.9568,23.1671],[88.9265,23.133],[88.8729,23.1103],[88.8743,23.0837],[88.9018,23.0369],[88.867,22.9813],[88.8659,22.9564],[88.867,22.946],[88.8996,22.9248],[88.869,22.9091],[88.9377,22.8656],[88.957,22.8418],[88.9527,22.8201],[88.9205,22.7746],[88.9184,22.7409],[88.954,22.7053],[88.9636,22.6977],[88.9581,22.671],[88.9348,22.6482],[88.943,22.6305],[88.9664,22.6026],[88.9568,22.5848],[88.9581,22.5581],[88.9815,22.5353],[89.0062,22.468],[89.0049,22.4401],[88.9939,22.3613],[89.0076,22.294],[89.0365,22.2571],[89.0612,22.2355],[89.0845,22.2075],[89.0955,22.1566],[89.0859,22.1439],[89.0612,22.121],[89.0365,22.0942],[89.0516,22.0598],[89.0875,22.0104],[89.098,21.9867],[89.098,21.897],[89.149,21.7868],[89.1684,21.7811],[89.2027,21.7778],[89.2158,21.7631],[89.2141,21.728],[89.237,21.71],[89.2396,21.6978],[89.2185,21.6765],[89.2035,21.6545],[89.2097,21.6349],[89.2246,21.6226],[89.2493,21.625],[89.2695,21.6349],[89.3003,21.643],[89.3029,21.6602],[89.2934,21.685],[89.2975,21.6901],[89.3003,21.7092],[89.2975,21.7603],[89.3016,21.7845],[89.3264,21.8253],[89.3277,21.8406],[89.3401,21.8929],[89.3758,21.8968],[89.3745,21.8764],[89.346,21.8195],[89.3521,21.8007],[89.3653,21.7876],[89.3777,21.7713],[89.4014,21.7272],[89.4075,21.7051],[89.4383,21.71],[89.4506,21.7231],[89.4603,21.7403],[89.4735,21.7533],[89.4814,21.764],[89.4937,21.7912],[89.4658,21.8151],[89.4551,21.8351],[89.4723,21.855],[89.483,21.8749],[89.5109,21.9128],[89.5345,21.9964],[89.556,21.9904],[89.5624,21.9307],[89.5517,21.8829],[89.5453,21.8331],[89.5453,21.7753],[89.5732,21.7274],[89.5839,21.6995],[89.6247,21.7075],[89.6183,21.7354],[89.6054,21.7513],[89.6998,21.7533],[89.7106,21.7733],[89.687,21.7932],[89.6698,21.8251],[89.6891,21.8251],[89.7235,21.8191],[89.8093,21.8151],[89.8523,21.8251],[89.8737,21.859],[89.8705,21.9299],[89.8636,21.949],[89.8636,21.9771],[89.8732,22.0013],[89.865,22.056],[89.865,22.0853],[89.8958,22.1093],[89.8958,22.1565],[89.8987,22.2012],[89.9005,22.2293],[89.8866,22.2508],[89.875,22.2829],[89.8981,22.3129],[89.9097,22.3364],[89.9051,22.3835],[89.919,22.422],[89.9398,22.437],[89.9606,22.4627],[89.9421,22.4926],[89.9629,22.5076],[89.9815,22.5375],[89.9768,22.5739],[89.9606,22.6038],[89.9606,22.6337],[89.9583,22.6743],[89.9398,22.6913],[89.8958,22.7106],[89.9051,22.7319],[89.9398,22.7661],[89.9421,22.8237],[89.9456,22.8344],[89.9453,22.8335],[89.9051,22.8486]]]]}},{"type":"Feature","properties":{"name":"Barisal","iso":"BD-A","source":"geoBoundaries gbOpen BGD ADM1 (CC BY 4.0)"},"geometry":{"type":"MultiPolygon","coordinates":[[[[90.5513,21.8472],[90.5585,21.8559],[90.5675,21.8709],[90.5718,21.8853],[90.5725,21.9043],[90.5668,21.926],[90.5581,21.9481],[90.5502,21.9411],[90.5275,21.9147],[90.5124,21.8903],[90.5091,21.8766],[90.5189,21.8522],[90.5358,21.8455],[90.5513,21.8472]]],[[[90.6623,21.9045],[90.6662,21.9181],[90.6634,21.9296],[90.655,21.94],[90.6449,21.9489],[90.6381,21.9447],[90.6235,21.9259],[90.6235,21.916],[90.6381,21.9056],[90.6522,21.8988],[90.6623,21.9045]]],[[[90.7186,21.9593],[90.7242,21.9698],[90.7169,21.9776],[90.7017,21.9875],[90.6944,21.9823],[90.6893,21.9734],[90.6888,21.9635],[90.695,21.9578],[90.7096,21.9572],[90.7186,21.9593]]],[[[90.4681,21.9338],[90.4766,21.9656],[90.4755,21.9953],[90.4642,22.0256],[90.4321,22.0486],[90.3972,22.06],[90.3764,22.0246],[90.3618,21.9807],[90.3505,21.9572],[90.3471,21.9369],[90.3241,21.868],[90.3168,21.8366],[90.3241,21.8194],[90.3443,21.8298],[90.3511,21.8544],[90.3747,21.916],[90.3809,21.9202],[90.3967,21.916],[90.4349,21.9014],[90.4529,21.9103],[90.4681,21.9338]]],[[[90.5214,21.9585],[90.5326,21.9772],[90.5513,21.9922],[90.565,22.0159],[90.5671,22.0363],[90.5614,22.0536],[90.5444,22.065],[90.5243,22.0583],[90.5073,22.0356],[90.5048,22.0099],[90.512,21.9565],[90.5214,21.9585]]],[[[90.9628,22.1668],[90.9615,22.2088],[90.9587,22.2355],[90.9697,22.2685],[90.9862,22.3079],[90.9903,22.3296],[90.9876,22.341],[90.9697,22.3601],[90.967,22.3588],[90.9587,22.3257],[90.9436,22.2927],[90.9285,22.2317],[90.9216,22.1871],[90.9505,22.1311],[90.9615,22.1299],[90.9628,22.1668]]],[[[90.6369,21.9965],[90.6501,22.003],[90.6668,22.0153],[90.687,22.0251],[90.7319,22.0666],[90.7574,22.0756],[90.7776,22.0894],[90.7926,22.1123],[90.8049,22.1269],[90.8181,22.1342],[90.833,22.1587],[90.8374,22.2027],[90.8383,22.2564],[90.8453,22.2881],[90.8603,22.3166],[90.8691,22.3418],[90.8655,22.3922],[90.884,22.4304],[90.8911,22.4865],[90.8453,22.5288],[90.8348,22.5621],[90.8058,22.5913],[90.775,22.6156],[90.7407,22.7487],[90.7266,22.7868],[90.7064,22.7868],[90.7086,22.7864],[90.6619,22.78],[90.6015,22.7293],[90.574,22.685],[90.5685,22.6596],[90.5795,22.6266],[90.6111,22.5924],[90.6276,22.5645],[90.6344,22.5188],[90.6454,22.482],[90.6605,22.4528],[90.6757,22.3994],[90.6784,22.3651],[90.677,22.2634],[90.6688,22.2266],[90.6317,22.1808],[90.6028,22.1528],[90.5973,22.1261],[90.6138,22.107],[90.6234,22.0904],[90.6149,22.0601],[90.6088,22.0446],[90.6167,22.0234],[90.6184,22.0022],[90.6246,21.9957],[90.6369,21.9965]]],[[[89.9456,22.8344],[89.9421,22.8237],[89.9398,22.7661],[89.9051,22.7319],[89.8958,22.7106],[89.9398,22.6913],[89.9583,22.6743],[89.9606,22.6337],[89.9606,22.6038],[89.9768,22.5739],[89.9815,22.5375],[89.9629,22.5076],[89.9421,22.4926],[89.9606,22.4627],[89.9398,22.437],[89.919,22.422],[89.9051,22.3835],[89.9097,22.3364],[89.8981,22.3129],[89.875,22.2829],[89.8866,22.2508],[89.9005,22.2293],[89.8987,22.2012],[89.9186,22.1719],[89.9296,22.1261],[89.9268,22.098],[89.9296,22.0637],[89.9516,22.0178],[89.9584,21.9962],[89.9804,21.986],[89.9873,21.9923],[89.9887,22.0484],[90.0148,22.0789],[90.0477,22.0866],[90.0175,22.0102],[90.0216,21.9949],[90.0766,21.9771],[90.0835,21.9618],[90.0725,21.949],[90.0326,21.9414],[90.0257,21.935],[90.0266,21.8921],[90.0398,21.8791],[90.0433,21.8636],[90.0301,21.8415],[90.0636,21.8293],[90.0908,21.8252],[90.111,21.8146],[90.119,21.8023],[90.1418,21.7925],[90.1664,21.7868],[90.1867,21.7876],[90.2157,21.795],[90.2342,21.808],[90.2526,21.8113],[90.2676,21.8219],[90.2676,21.8464],[90.2711,21.8774],[90.2869,21.8995],[90.294,21.9141],[90.301,21.919],[90.323,21.9411],[90.323,22.0079],[90.33,22.0275],[90.3749,22.0756],[90.3898,22.0943],[90.4179,22.0911],[90.4496,22.0837],[90.483,22.0788],[90.5138,22.0764],[90.534,22.0886],[90.5586,22.1098],[90.5569,22.1448],[90.6015,22.2689],[90.6466,22.384],[90.6423,22.4356],[90.6187,22.4475],[90.5887,22.4595],[90.5844,22.5031],[90.5894,22.5353],[90.5455,22.5702],[90.5244,22.5848],[90.5129,22.6246],[90.5076,22.6538],[90.5015,22.6757],[90.5059,22.7],[90.5331,22.7065],[90.6187,22.7864],[90.6788,22.8359],[90.6812,22.8598],[90.6729,22.8851],[90.6358,22.9079],[90.5493,22.9471],[90.5067,22.9636],[90.4764,22.9813],[90.4146,23.0243],[90.4146,23.0268],[90.4073,23.024],[90.3772,22.9985],[90.3402,22.9772],[90.2823,22.9772],[90.2291,22.99],[90.2106,23.0368],[90.1736,23.0453],[90.1203,23.024],[90.1064,23.0006],[90.0625,22.958],[90.0416,22.9111],[90.0254,22.8962],[89.9907,22.8791],[89.9491,22.845],[89.9456,22.8344]]]]}}]}